[{"line1":"1 46659U 18079CM  22221.47579233 -.00000054  00000-0  00000+0 0  9993","line2":"2 46659  10.3198 188.4695 4991686  36.4366 348.8586  1.71434989 11499"},{"line1":"1 46660U 18079CN  22221.31022677 -.00000045  00000-0  00000-0 0  9994","line2":"2 46660  10.8869 168.8126 4636842  61.6194 337.1489  1.81092400 12146"},{"line1":"1 46661U 18079CP  22218.32715349 -.00000017  00000-0  00000+0 0  9995","line2":"2 46661  11.1193 164.5140 4550569  65.8092 334.5531  1.82911698 12200"},{"line1":"1 46662U 18079CQ  21054.79459369 -.00000106  00000-0  00000+0 0  9990","line2":"2 46662  10.3989 209.8041 4787921   2.2377 359.1516  1.94241116  2684"},{"line1":"1 46663U 18079CR  22218.98722583 -.00000014  00000-0  00000-0 0  9995","line2":"2 46663  10.8924 163.8648 4728714  73.5340 331.9318  1.83874886 12297"},{"line1":"1 46664U 18079CS  21350.10909988 -.00000029  00000-0  00000+0 0  9997","line2":"2 46664  10.7263 203.5457 4623453 359.0448   0.4927  1.71988631  7466"},{"line1":"1 46665U 18079CT  22221.05800737 -.00000066  00000-0  00000-0 0  9994","line2":"2 46665  10.9841 176.0387 4579420  38.4190 346.5340  1.71443232 11486"},{"line1":"1 46666U 18079CU  21342.72573324 -.00000076  00000-0  00000-0 0  9992","line2":"2 46666  10.7841 196.6239 4825097   3.4685 359.0932  1.56366335  2773"},{"line1":"1 46667U 18079CV  22216.26595697 -.00000026  00000-0  00000-0 0  9995","line2":"2 46667  11.3757 147.0709 4568818 103.2853 309.9227  1.95307366 12965"},{"line1":"1 46668U 18079CW  22221.24582116 -.00000035  00000-0  00000-0 0  9992","line2":"2 46668  10.8688 165.5659 4694115  70.5665 333.1826  1.83647192 12302"},{"line1":"1 46671U 20073B   22221.37897008 -.00000407  00000-0 -84341-5 0  9995","line2":"2 46671  53.0561   0.0998 0001046  68.3700 291.7400 15.06397155 99864"},{"line1":"1 46672U 20073C   22221.72772176 -.00002038  00000-0 -11800-3 0  9993","line2":"2 46672  53.0565 353.2989 0001023  82.6005 277.5100 15.06388793100471"},{"line1":"1 46673U 20073D   22221.77612279 -.00000914  00000-0 -42454-4 0  9997","line2":"2 46673  53.0550   8.1912 0001300  91.8818 268.2320 15.06391395100260"},{"line1":"1 46674U 20073E   22221.48813810  .00001162  00000-0  96875-4 0  9990","line2":"2 46674  53.0550 354.3661 0001356  88.0768 272.0376 15.06399150 99955"},{"line1":"1 46675U 20073F   22221.41810123  .00000354  00000-0  42640-4 0  9991","line2":"2 46675  53.0546 354.6846 0001284  74.1668 285.9462 15.06398845 99942"},{"line1":"1 46677U 20073H   22221.54711209 -.00000093  00000-0  12672-4 0  9995","line2":"2 46677  53.0579 354.0985 0001831  87.8885 272.2314 15.06397752100447"},{"line1":"1 46679U 20073K   22221.81803354 -.00003900  00000-0 -24312-3 0  9994","line2":"2 46679  53.0547 332.8870 0001769  61.2325 298.8842 15.06384723100776"},{"line1":"1 46680U 20073L   22221.42225690  .00002826  00000-0  20854-3 0  9995","line2":"2 46680  53.0570   9.6729 0001453  86.9092 273.2064 15.06401752 99739"},{"line1":"1 46681U 20073M   22221.52545612  .00000256  00000-0  36063-4 0  9991","line2":"2 46681  53.0551   9.1955 0001391  75.7331 284.3812 15.06397508100222"},{"line1":"1 46682U 20073N   22221.75029805 -.00001400  00000-0 -75100-4 0  9997","line2":"2 46682  53.0568   8.1926 0001555  79.1305 280.9859 15.06398808100372"},{"line1":"1 46684U 20073Q   22221.40704322  .00001937  00000-0  14889-3 0  9994","line2":"2 46684  53.0561 354.7373 0001712 107.4090 252.7086 15.06407473 99942"},{"line1":"1 46685U 20073R   22221.79358542 -.00003204  00000-0 -19635-3 0  9991","line2":"2 46685  53.0545   7.9787 0001550  92.5742 267.5424 15.06391115100262"},{"line1":"1 46686U 20073S   22221.50607486  .00000199  00000-0  32230-4 0  9990","line2":"2 46686  53.0559   9.2415 0001443  83.5358 276.5795 15.06397622 99745"},{"line1":"1 46687U 20073T   22221.43099753 -.00000855  00000-0 -38477-4 0  9995","line2":"2 46687  53.0542 334.6299 0001338  70.8627 289.2506 15.06401860100221"},{"line1":"1 46689U 20073V   22221.78716975 -.00000816  00000-0 -35874-4 0  9992","line2":"2 46689  53.0569   8.0199 0001078 103.1495 256.9615 15.06398889100269"},{"line1":"1 46690U 20073W   22221.72126923 -.00004585  00000-0 -28922-3 0  9998","line2":"2 46690  53.0557 343.3214 0001149 113.7962 246.3147 15.06387761100604"},{"line1":"1 46691U 20073X   22221.45496155  .00001346  00000-0  10924-3 0  9999","line2":"2 46691  53.0557 354.5163 0001491  77.9249 282.1907 15.06396179 99940"},{"line1":"1 46692U 20073Y   22221.57336991  .00000300  00000-0  39066-4 0  9992","line2":"2 46692  53.0554   8.9726 0001794 109.0395 251.0788 15.06413538100223"},{"line1":"1 46693U 20073Z   22221.45863771  .00002129  00000-0  16173-3 0  9995","line2":"2 46693  53.0561 354.5093 0001113 102.2713 257.8401 15.06411287 99944"},{"line1":"1 46694U 20073AA  22221.48260601  .00001198  00000-0  99333-4 0  9997","line2":"2 46694  53.0557 334.4036 0001848 130.4476 229.6674 15.06395654100231"},{"line1":"1 46696U 20073AC  22221.50103545 -.00000044  00000-0  15917-4 0  9991","line2":"2 46696  53.0548 334.3160 0001073  75.8058 284.3050 15.06402815100232"},{"line1":"1 46698U 20073AE  22221.55722346 -.00001129  00000-0 -56942-4 0  9993","line2":"2 46698  53.0557 354.0402 0001320  97.3023 262.8116 15.06397936100420"},{"line1":"1 46699U 20073AF  22221.69454480 -.00001442  00000-0 -77949-4 0  9998","line2":"2 46699  53.0548 353.4423 0001235  94.7506 265.3624 15.06401347100423"},{"line1":"1 46700U 20073AG  22221.49965657 -.00003258  00000-0 -19999-3 0  9999","line2":"2 46700  53.0557   9.3181 0001470  89.2003 270.9155 15.06393300 99748"},{"line1":"1 46701U 20073AH  22221.46601385 -.00000107  00000-0  11702-4 0  9996","line2":"2 46701  53.0543 354.4780 0001260  87.7105 272.4028 15.06404376 99951"},{"line1":"1 46702U 20073AJ  22221.47891831 -.00000079  00000-0  13615-4 0  9998","line2":"2 46702  53.0548 334.4175 0001416  93.5768 266.5383 15.06400577100237"},{"line1":"1 46703U 20073AK  22221.51024849  .00000838  00000-0  75126-4 0  9998","line2":"2 46703  53.0549 354.2556 0001318  74.3471 285.7664 15.06402428 99959"},{"line1":"1 46704U 20073AL  22221.48999208  .00013458  00000-0  92215-3 0  9994","line2":"2 46704  53.0564 334.3622 0001935  98.1346 261.9863 15.06338014100230"},{"line1":"1 46705U 20073AM  22221.50333521  .00003412  00000-0  24787-3 0  9996","line2":"2 46705  53.0568   9.2863 0001528 104.5570 255.5589 15.06395529 99740"},{"line1":"1 46706U 20073AN  22221.41072398  .00002646  00000-0  19640-3 0  9999","line2":"2 46706  53.0553 354.7210 0001734  75.8769 284.2413 15.06414347 99945"},{"line1":"1 46707U 20073AP  22221.73325239 -.00004581  00000-0 -28878-3 0  9995","line2":"2 46707  53.0559 333.2728 0001536  76.7499 283.3662 15.06409207100766"},{"line1":"1 46709U 20073AR  22221.80928479  .00000507  00000-0  52900-4 0  9996","line2":"2 46709  53.0555   8.0512 0001338  84.3028 275.8113 15.06402441100260"},{"line1":"1 46710U 20073AS  22221.42961660  .00001973  00000-0  15127-3 0  9992","line2":"2 46710  53.0551   9.6324 0001268  80.4718 279.6414 15.06407973 99731"},{"line1":"1 46711U 20073AT  22221.53604346  .00000229  00000-0  34226-4 0  9995","line2":"2 46711  53.0554 354.1610 0001106  83.5856 276.5259 15.06406029 99968"},{"line1":"1 46712U 20073AU  22221.58032343  .00019917  00000-0  13537-2 0  9997","line2":"2 46712  53.0549 354.0641 0001212 112.2739 247.8378 15.06359980100446"},{"line1":"1 46713U 20073AV  22221.38028851  .00001773  00000-0  13786-3 0  9993","line2":"2 46713  53.0571 354.8315 0001605  82.8142 277.3029 15.06406853 99938"},{"line1":"1 46714U 20073AW  22221.43653191  .00000943  00000-0  82214-4 0  9992","line2":"2 46714  53.0551 354.5930 0001317  86.0396 274.0743 15.06398506 99947"},{"line1":"1 46715U 20073AX  22221.56552749 -.00000995  00000-0 -47886-4 0  9999","line2":"2 46715  53.0538 354.0295 0001282  83.1099 277.0035 15.06398414100444"},{"line1":"1 46716U 20073AY  22221.71343482 -.00000619  00000-0 -22659-4 0  9993","line2":"2 46716  53.0538   8.3421 0001185  82.3424 277.7700 15.06404239100258"},{"line1":"1 46717U 20073AZ  22221.45127180 -.00000976  00000-0 -46624-4 0  9994","line2":"2 46717  53.0563 354.5399 0000908  72.8132 287.2957 15.06401976 99947"},{"line1":"1 46718U 20073BA  22221.82307710 -.00013887  00000-0 -91606-3 0  9999","line2":"2 46718  53.0564   7.8424 0001267 115.2131 244.8989 15.06365973100275"},{"line1":"1 46719U 20073BB  22221.74061423 -.00001245  00000-0 -64698-4 0  9996","line2":"2 46719  53.0568 333.2296 0000734 118.0941 242.0122 15.06405368100756"},{"line1":"1 46720U 20073BC  22220.72518115  .00211434  00000-0  82688-3 0  9999","line2":"2 46720  53.0422 217.7723 0005787  40.4667 319.6786 15.85889892102286"},{"line1":"1 46722U 20073BE  22221.51808463 -.00000645  00000-0 -24387-4 0  9992","line2":"2 46722  53.0537   9.2417 0001543  81.0787 279.0377 15.06398116 99747"},{"line1":"1 46723U 20073BF  22221.67657995 -.00001679  00000-0 -93845-4 0  9995","line2":"2 46723  53.0557 328.5274 0001242  90.7730 269.3402 15.06393326100819"},{"line1":"1 46725U 20073BH  22221.54756832 -.00000879  00000-0 -40154-4 0  9999","line2":"2 46725  53.0557   9.0981 0001352  95.8109 264.3034 15.06401112 99754"},{"line1":"1 46726U 20073BJ  22221.57197166  .00000656  00000-0  62999-4 0  9994","line2":"2 46726  53.0552 353.9808 0005224 105.6354 254.5212 15.06404686100440"},{"line1":"1 46727U 20073BK  22221.46278890 -.00000319  00000-0 -25339-5 0  9993","line2":"2 46727  53.0555 329.4841 0001314  95.4383 264.6756 15.06404395100300"},{"line1":"1 46734U 97051ABR 22216.20023444  .00000677  00000-0  24248-3 0  9991","line2":"2 46734  86.2743 175.6586 0049717  23.7625  32.9696 14.31864827454087"},{"line1":"1 46735U 20061BL  22221.15347168  .00004035  00000-0  18197-3 0  9999","line2":"2 46735  97.3834 290.6895 0004724 313.8233  46.2629 15.21570173 99740"},{"line1":"1 46737U 20061BM  22221.44851535  .00009028  00000-0  40202-3 0  9990","line2":"2 46737  97.3915 291.5708 0002200 271.7581  88.3403 15.21677840 99724"}]